{"type":"FeatureCollection","crs":{"type":"name","properties":{"name":"EPSG:4326"}},"features":[{"type":"Feature","geometry":{"type":"Polygon","coordinates":[[[-96.2179398309607,40.9684014520676],[-96.1888137891273,40.966978892764],[-96.1598044792955,40.9694993489181],[-96.1057588324064,40.9791475474237],[-96.0813566199143,40.9795826709058],[-96.0663661912489,40.9769523913421],[-96.05449934637,40.9723315109927],[-96.0334303514318,40.9544901972671],[-95.9384742739708,40.807224452249],[-95.9266799540189,40.7710818179738],[-95.9148953557383,40.7054607011528],[-95.8923870866969,40.6642780700792],[-95.8619349360507,40.5899966528256],[-95.8465132186124,40.5602712398282],[-95.8005375418763,40.4907865041962],[-95.7239875218089,40.4004356345992],[-95.6975169207715,40.3543915482337],[-95.6380768713528,40.2666636781886],[-95.592923446562,40.2085974699996],[-95.5289405230889,40.1139382245717],[-95.4899204422768,40.0692418972981],[-95.4693802702855,40.052659924918],[-95.43111498597,40.0283146718869],[-95.3343060299016,39.977810023716],[-95.1532303966677,39.8697646259391],[-95.1201064978189,39.8557038093857],[-95.0859955237766,39.845104213591],[-94.9903112472685,39.8305931919247],[-94.9719483654269,39.8215077360956],[-94.9634034893818,39.8109819656476],[-94.9615721918054,39.7971925258168],[-94.9679299103393,39.7849884540563],[-95.0053906260788,39.75122625509],[-95.0438235781978,39.7292851749733],[-95.0842046075588,39.7138930569214],[-95.1377050566453,39.7094604532397],[-95.2023511968525,39.6981471365835],[-95.2292316216442,39.6910431309381],[-95.2492743489343,39.681693976798],[-95.2648513729947,39.6702284552814],[-95.273002167918,39.6577343944291],[-95.2727543597281,39.647588426567],[-95.2685854372704,39.6399093926068],[-95.2623470677652,39.6345589651265],[-95.2333831107442,39.6229381909471],[-95.2159595159211,39.6123087061843],[-95.1848536552742,39.5771280802991],[-95.1750086896015,39.5488283796284],[-95.1636010511498,39.5281090707794],[-95.1525510712772,39.4999180927482],[-95.1418553028822,39.4811775999687],[-95.1327698830259,39.4707616763127],[-95.1160682090828,39.4597131740262],[-95.0711521468563,39.439541571189],[-95.0220784135902,39.4134849145995],[-94.9851623506642,39.3901798489233],[-94.9659900573974,39.3725594185847],[-94.9525335097159,39.3537623440593],[-94.9292229347928,39.3069235241038],[-94.8799627531807,39.221278086417],[-94.865785948365,39.1999047483079],[-94.8516466902448,39.1843342218493],[-94.8296919898957,39.1670269534336],[-94.8067903528947,39.1552664677757],[-94.7806414942118,39.1464321053598],[-94.7306166811172,39.1362612280757],[-94.719177497146,39.1313288459519],[-94.7184347839404,39.1284334165713],[-94.7221671970607,39.1251024392286],[-94.7648455167094,39.1081052741415],[-94.7711600848722,39.101188492957],[-94.7682785104471,39.0959273465722],[-94.7612362009921,39.0925667914267],[-94.7225068017497,39.0893049890365],[-94.7178923677408,39.0859068539206],[-94.7174809108176,39.0817529087722],[-94.7284169303992,39.0737692600458],[-94.8326419730508,39.0274777270179],[-94.8748389827351,39.0023325378188],[-94.9342868751414,38.9572660792686],[-94.9769274484452,38.913103834177],[-94.9792484115872,38.9037871455628],[-94.9666793625648,38.882828649425],[-94.9491867762509,38.8660620723092],[-94.931669026007,38.8515590680989],[-94.8967026725925,38.8411916367871],[-94.8966765041196,38.841176104596],[-95.0282203433964,38.8152854106956],[-95.0575479358908,38.8110382759981],[-95.1086985338125,38.8071069229485],[-95.1542104508538,38.8088458952243],[-95.196788771287,38.8160769498937],[-95.3100910067968,38.8065013158854],[-95.4035530702203,38.8009367526314],[-95.4113142608468,38.7988644322502],[-95.4641259992178,38.7908902839618],[-95.541951636561,38.7885020928997],[-95.7025687769298,38.8112738731931],[-95.8467138510656,38.8463907740174],[-95.8980261470912,38.851000850811],[-95.9243930311158,38.8554891486077],[-95.9458636902594,38.8617256852945],[-95.9644304502074,38.869794715656],[-95.9819922339567,38.8819989394019],[-95.9865727878062,38.8898316594059],[-95.9851387648444,38.8989307687424],[-95.9990666876797,38.9390592936539],[-96.0032926496383,38.9681167387988],[-96.0015827470484,39.0057212201606],[-95.9929648910192,39.038597202901],[-95.9816265066602,39.0610277246521],[-95.9641488239113,39.0823622021563],[-95.8818949436989,39.1442424099616],[-95.8737492686161,39.1584647843247],[-95.8729632827316,39.1745606263742],[-95.8830297784038,39.2206359920598],[-95.9129830850036,39.3238889961826],[-95.9251168702496,39.3570456006763],[-95.9389572386879,39.3833688747761],[-95.9535597510839,39.4023428639344],[-95.96984697516,39.4152637619154],[-95.9889646831758,39.4245394882091],[-96.0283005411393,39.437050389766],[-96.0572132062267,39.4522229536287],[-96.0631897947755,39.4586541386799],[-96.0647489700912,39.4766094540654],[-96.0525111827472,39.5221769132363],[-96.0528409299672,39.5322099919],[-96.0563582980992,39.5386765337974],[-96.0637986672769,39.5429573553],[-96.0762777130483,39.5441963656721],[-96.1618464502557,39.5340093401612],[-96.1931108317018,39.5208925680399],[-96.223269272761,39.499133828166],[-96.2342370060353,39.4954818836843],[-96.2536420897129,39.4991422719007],[-96.3049437593493,39.5211257001932],[-96.401090030183,39.5751928058057],[-96.5199939565581,39.6466841960212],[-96.5505014613756,39.6686350238895],[-96.6258994427074,39.7351642617236],[-96.635914121242,39.7528276292939],[-96.649785047744,39.7984839675633],[-96.6569491325987,39.8086462599193],[-96.6651308902806,39.8138536853016],[-96.6740257860634,39.813261902617],[-96.6837895249689,39.8081293439963],[-96.7327359313204,39.76649527394],[-96.755715255357,39.7517259247139],[-96.7732032173569,39.7456170989522],[-96.7931621116444,39.7423371950078],[-96.8054224297036,39.7425351196024],[-96.8110876342892,39.7461683087228],[-96.8483240060503,39.7788842382193],[-96.8710411840057,39.8081492540871],[-96.8764910468266,39.8250119237636],[-96.8780775444454,39.8770966897628],[-96.8884243866784,39.8992874999205],[-96.9113842925533,39.9210604931495],[-96.9650566839211,39.9538622728279],[-96.9854707727602,39.9763509105683],[-96.9921483729513,39.9938490960612],[-96.9901327350399,40.0172836281392],[-96.9935664842082,40.042387009655],[-97.0116623348511,40.0525846345755],[-97.0788065192077,40.0766927597653],[-97.1757122711067,40.1767132389271],[-97.2229268206185,40.2388258486363],[-97.301092468245,40.3570598250532],[-97.3154993978811,40.390506593107],[-97.3224851103019,40.4265350386633],[-97.3200736214028,40.4653161111519],[-97.3159772400598,40.4784083830427],[-97.3066088979845,40.4947361260736],[-97.2954600916122,40.5063830408469],[-97.2807498880991,40.5157134621088],[-97.2654602477945,40.5206797720561],[-97.2469543746469,40.522239244148],[-97.2155854074429,40.516470792895],[-97.1888991489788,40.5071571916533],[-97.1746184643729,40.4995021210283],[-97.1547341175877,40.4810255657795],[-97.1277610653232,40.4393059845858],[-97.1104664107984,40.4201180943768],[-97.0859385072586,40.4023966503874],[-97.0606965330208,40.3916885576831],[-97.0405074455644,40.3870695272391],[-97.0127152404182,40.3848004729657],[-96.9776541955869,40.3853465413121],[-96.9508860088844,40.3885860477102],[-96.9323135948987,40.3962356990206],[-96.9246784298679,40.406923389705],[-96.9216124116857,40.4212837767272],[-96.9294781422047,40.5108827753221],[-96.9452135152937,40.6301219257885],[-96.9685312002569,40.7058147399606],[-96.9880173847967,40.7862437455546],[-96.9956738601627,40.8315940400352],[-97.0039093001763,40.9521355374274],[-97.0135444414251,41.0271413576898],[-97.011144843362,41.1312656933593],[-97.0183125291021,41.1793450633263],[-97.0255979495879,41.1969146370031],[-97.0371788127542,41.2154885393668],[-97.0718500356528,41.251577920287],[-97.0920677269463,41.2670171331364],[-97.1160282482073,41.2814662922379],[-97.1436724977898,41.2942398012281],[-97.1622865980503,41.299521358626],[-97.151312807842,41.3144192353617],[-97.1275042729061,41.3244903382607],[-97.1159505440845,41.3263921336923],[-97.0908161026832,41.3357008902861],[-96.9997145240083,41.3779177543032],[-96.9567982770211,41.395178027746],[-96.8965787303264,41.4127493865772],[-96.8473574929561,41.4227297218015],[-96.7842651429242,41.4283698595836],[-96.610402963728,41.4231218172203],[-96.5807989160394,41.4206059592998],[-96.5437540890822,41.411164940312],[-96.4944924982324,41.3874328369581],[-96.4530123030775,41.3571727122531],[-96.4239975910182,41.3263762552622],[-96.3960230744076,41.2853194294504],[-96.3528635733974,41.208261901268],[-96.3372659332784,41.1694035077679],[-96.3300792556554,41.1295218998181],[-96.3299671245854,41.059751980172],[-96.3274268356821,41.0478840399188],[-96.3322530978045,41.0237633637905],[-96.3341914632676,41.0178759753982],[-96.3325275861814,41.0129372548527],[-96.3062850999796,40.9971925018348],[-96.2502886167285,40.9756573657971],[-96.2179398309607,40.9684014520676]]]},"properties":{"MLRA_ID":150,"MLRARSYM":"106","MLRA_NAME":"Nebraska and Kansas Loess-Drift Hills","LRRSYM":"M"}}]}